NORAD_CAT_ID,OBJECT_NAME,OBJECT_TYPE,EPOCH,MEAN_MOTION,ECCENTRICITY,INCLINATION,RA_OF_ASC_NODE,ARG_OF_PERICENTER,MEAN_ANOMALY,BSTAR,MEAN_MOTION_DOT,MEAN_MOTION_DDOT,TLE_LINE0,TLE_LINE1,TLE_LINE2,SEMIMAJOR_AXIS,PERIOD,APOGEE,PERIGEE,DECAYED
51728.0,STARLINK-3448,PAYLOAD,2022-10-24 09:50:35,15.08853958,0.0002551,53.2188,91.0373,46.4078,313.7125,-6.2283e-05,-1.28e-05,0.0,0 STARLINK-3448,1 51728U 22016Q   22297.41013704 -.00001280  00000-0 -62283-4 0  9994,2 51728  53.2188  91.0373 0002551  46.4078 313.7125 15.08853958 37539,6917.8380000000025,95.437,541.467,537.938,0.0
51728.0,STARLINK-3448,PAYLOAD,2022-10-24 19:22:55,15.0883323,0.0002092,53.2189,89.25299999999999,57.2727,302.8467,3.8375e-05,3.22e-06,0.0,0 STARLINK-3448,1 51728U 22016Q   22297.80758821  .00000322  00000-0  38375-4 0  9992,2 51728  53.2189  89.2530 0002092  57.2727 302.8467 15.08833230 37590,6917.901,95.438,541.2130000000002,538.319,0.0
51728.0,STARLINK-3448,PAYLOAD,2022-10-25 11:16:46,15.08844023,0.0002044999999999,53.219,86.2791,48.0086,312.108,6.3678e-05,7.25e-06,0.0,0 STARLINK-3448,1 51728U 22016Q   22298.46998188  .00000725  00000-0  63678-4 0  9998,2 51728  53.2190  86.2791 0002045  48.0086 312.1080 15.08844023 38826,6917.868,95.437,541.148,538.318,0.0
51728.0,STARLINK-3448,PAYLOAD,2022-10-25 19:13:42,15.08840941,0.0002016,53.2192,84.7926,46.71100000000001,313.405,3.2904e-05,2.36e-06,0.0,0 STARLINK-3448,1 51728U 22016Q   22298.80118412  .00000236  00000-0  32904-4 0  9995,2 51728  53.2192  84.7926 0002016  46.7110 313.4050 15.08840941 37748,6917.878000000002,95.437,541.137,538.3480000000002,0.0
51728.0,STARLINK-3448,PAYLOAD,2022-10-26 03:10:38,15.08848347,0.0001994,53.2192,83.3059,45.0744,315.041,-0.00024129,-4.127e-05,0.0,0 STARLINK-3448,1 51728U 22016Q   22299.13238647 -.00004127  00000-0 -24129-3 0  9999,2 51728  53.2192  83.3059 0001994  45.0744 315.0410 15.08848347 38926,6917.855,95.437,541.099,538.34,0.0
51728.0,STARLINK-3448,PAYLOAD,2022-10-26 15:53:43,15.08834677,0.0001966,53.2191,80.9273,43.17100000000001,316.9436,5.8211e-05,6.38e-06,0.0,0 STARLINK-3448,1 51728U 22016Q   22299.66230873  .00000638  00000-0  58211-4 0  9991,2 51728  53.2191  80.9273 0001966  43.1710 316.9436 15.08834677 37879,6917.897,95.438,541.122,538.4019999999998,0.0
51728.0,STARLINK-3448,PAYLOAD,2022-10-27 09:22:57,15.08846568,0.0002083,53.2189,77.6563,46.2298,313.8866,8.6134e-05,1.083e-05,0.0,0 STARLINK-3448,1 51728U 22016Q   22300.39094089  .00001083  00000-0  86134-4 0  9991,2 51728  53.2189  77.6563 0002083  46.2298 313.8866 15.08846568 37984,6917.86,95.437,541.1659999999998,538.284,0.0
51728.0,STARLINK-3448,PAYLOAD,2022-10-27 12:33:43,15.08845415,0.0002123,53.2188,77.0619,46.7679,313.349,5.2085e-05,5.41e-06,0.0,0 STARLINK-3448,1 51728U 22016Q   22300.52342284  .00000541  00000-0  52085-4 0  9995,2 51728  53.2188  77.0619 0002123  46.7679 313.3490 15.08845415 39139,6917.864000000001,95.437,541.198,538.26,0.0
51728.0,STARLINK-3448,PAYLOAD,2022-10-27 18:55:16,15.08842472,0.0002190999999999,53.2191,75.8732,35.2297,324.8839,1.2359e-05,-9.2e-07,0.0,0 STARLINK-3448,1 51728U 22016Q   22300.78838567 -.00000092  00000-0  12359-4 0  9999,2 51728  53.2191  75.8732 0002191  35.2297 324.8839 15.08842472 38042,6917.873000000001,95.437,541.254,538.222,0.0
51728.0,STARLINK-3448,PAYLOAD,2022-10-28 13:59:53,15.088449,0.000205,53.2196,72.304,43.885,316.2305,0.00010091,1.318e-05,0.0,0 STARLINK-3448,1 51728U 22016Q   22301.58326112  .00001318  00000-0  10091-3 0  9997,2 51728  53.2196  72.3040 0002050  43.8850 316.2305 15.08844900 38169,6917.865,95.437,541.149,538.312,0.0
51728.0,STARLINK-3448,PAYLOAD,2022-10-28 15:35:16,15.08845672,0.0002029,53.2199,72.0065,43.5305,316.5847,7.249e-05,8.66e-06,0.0,0 STARLINK-3448,1 51728U 22016Q   22301.64950127  .00000866  00000-0  72490-4 0  9992,2 51728  53.2199  72.0065 0002029  43.5305 316.5847 15.08845672 39302,6917.863,95.437,541.132,538.3240000000002,0.0
51728.0,STARLINK-3448,PAYLOAD,2022-10-29 18:36:50,15.0884006,0.0002029,53.2184,66.9495,35.6499,324.4628,4.7192e-05,4.63e-06,0.0,0 STARLINK-3448,1 51728U 22016Q   22302.77558147  .00000463  00000-0  47192-4 0  9997,2 51728  53.2184  66.9495 0002029  35.6499 324.4628 15.08840060 39470,6917.88,95.438,541.149,538.342,0.0
51728.0,STARLINK-3448,PAYLOAD,2022-10-30 12:06:05,15.08833201,0.0001991,53.219,63.6809,35.5839,324.5285,-5.823e-05,-1.215e-05,0.0,0 STARLINK-3448,1 51728U 22016Q   22303.50422893 -.00001215  00000-0 -58230-4 0  9990,2 51728  53.2190  63.6809 0001991  35.5839 324.5285 15.08833201 38450,6917.901,95.438,541.144,538.389,0.0
51728.0,STARLINK-3448,PAYLOAD,2022-10-30 18:27:38,15.08823101,0.0001984,53.2219,62.4932,44.0757,316.0393,0.00010636,1.404e-05,0.0,0 STARLINK-3448,1 51728U 22016Q   22303.76919129  .00001404  00000-0  10636-3 0  9996,2 51728  53.2219  62.4932 0001984  44.0757 316.0393 15.08823101 38490,6917.932,95.439,541.17,538.425,0.0
51728.0,STARLINK-3448,PAYLOAD,2022-10-31 10:21:29,15.0882574,0.0001873,53.2204,59.5181,40.1628,319.9503,-2.0661000000000002e-07,-2.91e-06,0.0,0 STARLINK-3448,1 51728U 22016Q   22304.43159626 -.00000291  00000-0 -20661-6 0  9996,2 51728  53.2204  59.5181 0001873  40.1628 319.9503 15.08825740 38595,6917.924,95.438,541.085,538.493,0.0
51728.0,STARLINK-3448,PAYLOAD,2022-10-31 16:43:02,15.08831343,0.0001999,53.2232,58.3323,60.8721,299.2471,6.7544e-05,7.87e-06,0.0,0 STARLINK-3448,1 51728U 22016Q   22304.69655330  .00000787  00000-0  67544-4 0  9994,2 51728  53.2232  58.3323 0001999  60.8721 299.2471 15.08831343 39763,6917.906999999997,95.438,541.155,538.389,0.0
51728.0,STARLINK-3448,PAYLOAD,2022-11-01 10:12:16,15.08839805,0.0001743,53.2227,55.0597,53.6433,306.472,0.00019718,2.851e-05,0.0,0 STARLINK-3448,1 51728U 22016Q   22305.42518623  .00002851  00000-0  19718-3 0  9992,2 51728  53.2227  55.0597 0001743  53.6433 306.4720 15.08839805 39872,6917.880999999999,95.438,540.952,538.54,0.0
51728.0,STARLINK-3448,PAYLOAD,2022-11-01 16:33:49,15.0883348,0.0002009999999999,53.2198,53.8682,33.7263,326.3856,0.00013412,1.847e-05,0.0,0 STARLINK-3448,1 51728U 22016Q   22305.69015415  .00001847  00000-0  13412-3 0  9991,2 51728  53.2198  53.8682 0002010  33.7263 326.3856 15.08833480 39917,6917.9,95.438,541.156,538.375,0.0
51728.0,STARLINK-3448,PAYLOAD,2022-11-02 13:13:49,15.08844484,0.0001994,53.22,50.0032,34.3981,325.714,0.00011296,1.51e-05,0.0,0 STARLINK-3448,1 51728U 22016Q   22306.55127232  .00001510  00000-0  11296-3 0  9993,2 51728  53.2200  50.0032 0001994  34.3981 325.7140 15.08844484 38917,6917.8669999999975,95.437,541.111,538.352,0.0
51728.0,STARLINK-3448,PAYLOAD,2022-11-02 16:24:36,15.08839702,0.0001986,53.2201,49.4074,21.5067,338.6008,0.00014093,1.955e-05,0.0,0 STARLINK-3448,1 51728U 22016Q   22306.68375441  .00001955  00000-0  14093-3 0  9995,2 51728  53.2201  49.4074 0001986  21.5067 338.6008 15.08839702 38935,6917.880999999999,95.438,541.12,538.372,0.0
51728.0,STARLINK-3448,PAYLOAD,2022-11-03 00:21:31,15.08844281,0.0001728,53.2203,47.9201,31.5385,328.5711,7.6556e-05,9.31e-06,0.0,0 STARLINK-3448,1 51728U 22016Q   22307.01495220  .00000931  00000-0  76556-4 0  9997,2 51728  53.2203  47.9201 0001728  31.5385 328.5711 15.08844281 40110,6917.8669999999975,95.437,540.928,538.5369999999998,0.0
51728.0,STARLINK-3448,PAYLOAD,2022-11-03 11:29:13,15.08843024,0.0002055,53.2202,45.8403,37.3924,322.7211,0.00011859,1.6e-05,0.0,0 STARLINK-3448,1 51728U 22016Q   22307.47863290  .00001600  00000-0  11859-3 0  9991,2 51728  53.2202  45.8403 0002055  37.3924 322.7211 15.08843024 39053,6917.871,95.437,541.158,538.315,0.0
51728.0,STARLINK-3448,PAYLOAD,2022-11-03 16:15:22,15.08847139,0.000229,53.2191,44.9484,40.2973,319.8188,0.00016556,2.348e-05,0.0,0 STARLINK-3448,1 51728U 22016Q   22307.67734950  .00002348  00000-0  16556-3 0  9992,2 51728  53.2191  44.9484 0002290  40.2973 319.8188 15.08847139 39081,6917.859,95.437,541.308,538.139,0.0
51728.0,STARLINK-3448,PAYLOAD,2022-11-04 12:55:23,15.08846574,0.0002118,53.2201,41.0816,32.7422,327.3702,3.8606e-05,3.26e-06,0.0,0 STARLINK-3448,1 51728U 22016Q   22308.53846293  .00000326  00000-0  38606-4 0  9997,2 51728  53.2201  41.0816 0002118  32.7422 327.3702 15.08846574 40343,6917.86,95.437,541.19,538.26,0.0
51728.0,STARLINK-3448,PAYLOAD,2022-11-04 16:06:09,15.08848823,0.0002264,53.2183,40.4863,29.8614,330.2507,6.545e-05,7.54e-06,0.0,0 STARLINK-3448,1 51728U 22016Q   22308.67094197  .00000754  00000-0  65450-4 0  9992,2 51728  53.2183  40.4863 0002264  29.8614 330.2507 15.08848823 39230,6917.853,95.437,541.285,538.1519999999998,0.0
51728.0,STARLINK-3448,PAYLOAD,2022-11-05 09:35:24,15.08834525,0.0001832,53.2205,37.2165,33.936,326.1749,-3.4644e-05,-8.39e-06,0.0,0 STARLINK-3448,1 51728U 22016Q   22309.39958872 -.00000839  00000-0 -34644-4 0  9998,2 51728  53.2205  37.2165 0001832  33.9360 326.1749 15.08834525 40472,6917.897,95.438,541.029,538.495,0.0
51728.0,STARLINK-3448,PAYLOAD,2022-11-05 15:56:58,15.08825742,0.0001847,53.2213,36.0276,25.3502,334.7581,-0.00021892,-3.769e-05,0.0,0 STARLINK-3448,1 51728U 22016Q   22309.66456206 -.00003769  00000-0 -21892-3 0  9997,2 51728  53.2213  36.0276 0001847  25.3502 334.7581 15.08825742 40515,6917.924,95.438,541.067,538.511,0.0
51728.0,STARLINK-3448,PAYLOAD,2022-11-06 11:01:36,15.08831325,0.0002256,53.2209,32.4606,39.6402,320.4755,-0.00016073,-2.845e-05,0.0,0 STARLINK-3448,1 51728U 22016Q   22310.45944533 -.00002845  00000-0 -16073-3 0  9990,2 51728  53.2209  32.4606 0002256  39.6402 320.4755 15.08831325 40631,6917.906999999997,95.438,541.3330000000002,538.211,0.0
51728.0,STARLINK-3448,PAYLOAD,2022-11-07 04:30:50,15.08833596,0.0002406,53.2206,29.1925,35.8035,324.3118,6.7043e-05,7.79e-06,0.0,0 STARLINK-3448,1 51728U 22016Q   22311.18808369  .00000779  00000-0  67043-4 0  9993,2 51728  53.2206  29.1925 0002406  35.8035 324.3118 15.08833596 40742,6917.9,95.438,541.429,538.101,0.0
